{
  "norad_id": 53973,
  "name": "STARLINK-5156",
  "history": [
    {
      "epoch": "2026-03-28T19:57:49.313664",
      "apogee_km": 540.5603624391524,
      "perigee_km": 538.7834540429822,
      "latitude_deg": 4.532282425768029,
      "longitude_deg": 17.154792960034683,
      "semi_major_axis_km": 6917.808908241067,
      "eccentricity": 0.00012843,
      "inclination_deg": 53.2169,
      "raan_deg": 138.0681,
      "arg_perigee_deg": 100.3551,
      "mean_anomaly_deg": 259.7586,
      "mean_motion_rev_day": 15.08863386
    },
    {
      "epoch": "2026-03-29T03:54:45.458496",
      "apogee_km": 540.1591698143484,
      "perigee_km": 539.3262570968482,
      "latitude_deg": -41.6407047861762,
      "longitude_deg": 48.95050944015384,
      "semi_major_axis_km": 6917.879713455598,
      "eccentricity": 6.02e-05,
      "inclination_deg": 53.2167,
      "raan_deg": 136.5805,
      "arg_perigee_deg": 94.8502,
      "mean_anomaly_deg": 265.2559,
      "mean_motion_rev_day": 15.08840221
    }
  ]
}